      3.03          N: GNSS NAV DATA    G: GPS              RINEX VERSION / TYPE
SKYDEL              OROLIA              01-Jun-22 12:00     PGM / RUN BY / DATE
                                                            END OF HEADER
G17 2022 06 01 14 00 00 4.634349606931E-04 5.798028723802E-12 0.000000000000E+00
     2.000000000000E+00 6.418750000000E+01 4.448399579412E-09 1.982539655526E+00
     3.039836883545E-06 1.335241692141E-02-3.632158041000E-07 5.153616712570E+03
     3.096000000000E+05-2.514570951462E-07 1.477540151415E+00-2.533197402954E-07
     9.817144638222E-01 4.011250000000E+02-1.564280640350E+00-8.544284475173E-09
     7.571743964957E-11 1.000000000000E+00 2.212000000000E+03 1.000000000000E+00
     4.000000000000E+00 0.000000000000E+00-1.117587089539E-08 2.000000000000E+00
     9.999000000000E+08 4.000000000000E+00
G18 2022 06 01 14 00 00 3.450997173786E-04-2.046363078989E-12 0.000000000000E+00
     2.000000000000E+00-1.466562500000E+02 4.231604834755E-09-2.624567109836E-02
    -7.688999176025E-06 1.567717758007E-03 3.946945071220E-06 5.153659170151E+03
     3.096000000000E+05 1.303851604462E-08 2.500846656856E+00-1.341104507446E-07
     9.684453843004E-01 3.106562500000E+02 2.882655019798E+00-8.052121117451E-09
    -4.110885520597E-10 1.000000000000E+00 2.212000000000E+03 1.000000000000E+00
     2.000000000000E+00 0.000000000000E+00-8.381903171539E-09 2.000000000000E+00
     9.999000000000E+08 4.000000000000E+00
G19 2022 06 01 14 00 00 1.755403354764E-05 5.002220859751E-12 0.000000000000E+00
     2.000000000000E+00 5.840625000000E+01 4.402326231701E-09-1.923586048836E+00
     3.138557076454E-06 9.329677210189E-03-1.545995473862E-06 5.153641603470E+03
     3.096000000000E+05 1.490116119385E-08 1.529774429115E+00 1.341104507446E-07
     9.802523649771E-01 4.195625000000E+02 1.867808516053E+00-8.304631635527E-09
     1.160762636137E-10 1.000000000000E+00 2.212000000000E+03 1.000000000000E+00
     2.000000000000E+00 0.000000000000E+00-1.536682248116E-08 2.000000000000E+00
     9.999000000000E+08 4.000000000000E+00
G20 2022 06 01 14 00 00 5.208519287407E-04-3.410605131648E-13 0.000000000000E+00
     2.000000000000E+00-1.080625000000E+02 4.563404369823E-09-1.078424565687E+00
    -5.653128027916E-06 6.090825190768E-03 1.174025237560E-05 5.151751333237E+03
     3.096000000000E+05 1.657754182816E-07-2.901612604799E+00-2.048909664154E-08
     9.390135498892E-01 1.446250000000E+02 3.041754918353E+00-7.988547040764E-09
     3.317995350682E-10 1.000000000000E+00 2.212000000000E+03 1.000000000000E+00
     2.000000000000E+00 0.000000000000E+00-8.381903171539E-09 2.000000000000E+00
     9.999000000000E+08 4.000000000000E+00
G21 2022 06 01 14 00 00 1.270826905966E-04 2.387423592154E-12 0.000000000000E+00
     2.000000000000E+00-1.437187500000E+02 4.553761111000E-09 1.958892836554E+00
    -8.244067430496E-06 2.400787768420E-02 2.454966306686E-06 5.153678176880E+03
     3.096000000000E+05 3.948807716370E-07 2.397237740077E+00-4.563480615616E-07
     9.574512930723E-01 3.283125000000E+02-1.122780764943E+00-8.314989209819E-09
    -4.453756945425E-10 1.000000000000E+00 2.212000000000E+03 1.000000000000E+00
     2.000000000000E+00 0.000000000000E+00-1.024454832077E-08 2.000000000000E+00
     9.999000000000E+08 4.000000000000E+00
G22 2022 06 01 14 00 00-5.804277025163E-04 9.663381206337E-12 0.000000000000E+00
     2.000000000000E+00-7.637500000000E+01 4.687338103589E-09 4.732967073838E-01
    -4.062429070473E-06 6.988620152697E-03 1.177936792374E-05 5.153806217194E+03
     3.096000000000E+05 5.587935447693E-09-2.855982577978E+00-2.328306436539E-07
     9.357159438221E-01 1.434062500000E+02-9.356257285900E-01-8.012119451221E-09
     2.953694461802E-10 1.000000000000E+00 2.212000000000E+03 1.000000000000E+00
     2.000000000000E+00 0.000000000000E+00-1.769512891769E-08 2.000000000000E+00
     9.999000000000E+08 4.000000000000E+00
G23 2022 06 01 14 00 00 9.314483031631E-05-4.547473508865E-12 0.000000000000E+00
     2.000000000000E+00-8.178125000000E+01 3.903734034763E-09-7.750322087992E-01
    -4.164874553680E-06 1.314184628427E-03 1.166760921478E-05 5.153659906387E+03
     3.096000000000E+05-2.235174179077E-08-2.767360424075E+00 7.264316082001E-08
     9.649598839610E-01 1.580312500000E+02 2.620444797301E+00-7.515313042954E-09
     4.800199947595E-10 1.000000000000E+00 2.212000000000E+03 1.000000000000E+00
     2.000000000000E+00 0.000000000000E+00-8.381903171539E-09 2.000000000000E+00
     9.999000000000E+08 4.000000000000E+00
G24 2022 06 01 14 00 00 1.467587426305E-04 1.682565198280E-11 0.000000000000E+00
     2.000000000000E+00-1.743750000000E+01 5.465941964137E-09-1.042433474317E-01
    -7.133930921555E-07 1.117213896941E-02 7.633119821548E-06 5.153715734482E+03
     3.096000000000E+05 1.378357410431E-07-7.435198389908E-01 1.434236764908E-07
     9.347441258791E-01 2.188750000000E+02 7.415275850175E-01-8.400349908292E-09
    -5.778812139293E-10 1.000000000000E+00 2.212000000000E+03 1.000000000000E+00
     2.000000000000E+00 0.000000000000E+00 2.793967723846E-09 2.000000000000E+00
     9.999000000000E+08 4.000000000000E+00
G25 2022 06 01 14 00 00 1.616161316633E-04 6.821210263297E-12 0.000000000000E+00
     2.000000000000E+00 1.478437500000E+02 4.183031382905E-09-1.861715424157E+00
     7.551163434982E-06 9.842552943155E-03 1.127086579800E-05 5.153621751785E+03
     3.096000000000E+05 1.434236764908E-07 3.937266574105E-01-1.285225152969E-07
     9.610413335376E-01 1.590312500000E+02 9.706680440145E-01-7.656390347961E-09
    -2.250093725435E-11 1.000000000000E+00 2.212000000000E+03 1.000000000000E+00
     2.000000000000E+00 0.000000000000E+00 5.587935447693E-09 2.000000000000E+00
     9.999000000000E+08 4.000000000000E+00
G26 2022 06 01 14 00 00 1.023765653372E-04 4.774847184308E-12 0.000000000000E+00
     2.000000000000E+00 1.257812500000E+02 4.684837999450E-09-2.443439995529E+00
     6.590038537979E-06 5.907710059546E-03 1.084432005882E-05 5.153588121414E+03
     3.096000000000E+05-5.587935447693E-08 3.451859996232E-01-5.960464477539E-08
     9.419544233827E-01 1.610000000000E+02 3.032314811855E-01-7.858898783251E-09
    -8.428922527028E-11 1.000000000000E+00 2.212000000000E+03 1.000000000000E+00
     2.000000000000E+00 0.000000000000E+00 6.984919309616E-09 2.000000000000E+00
     9.999000000000E+08 4.000000000000E+00
G27 2022 06 01 14 00 00-1.523038372397E-04-6.139089236967E-12 0.000000000000E+00
     2.000000000000E+00 7.806250000000E+01 4.512330813833E-09 1.739286614361E+00
     4.272907972336E-06 9.449986624531E-03 5.308538675308E-07 5.153689065933E+03
     3.096000000000E+05 2.980232238770E-08 1.417787575350E+00 1.695007085800E-07
     9.755172312369E-01 3.751250000000E+02 6.351872286577E-01-8.504282808943E-09
     9.643258823294E-12 1.000000000000E+00 2.212000000000E+03 1.000000000000E+00
     2.000000000000E+00 0.000000000000E+00 1.862645149231E-09 2.000000000000E+00
     9.999000000000E+08 4.000000000000E+00
G28 2022 06 01 14 00 00 5.492935888469E-04-6.366462912410E-12 0.000000000000E+00
     2.000000000000E+00 1.593437500000E+02 3.993380626046E-09 2.181866023498E+00
     8.083879947662E-06 1.748493139166E-02 9.965151548386E-06 5.153739652634E+03
     3.096000000000E+05 3.203749656677E-07 4.924147708181E-01-3.241002559662E-07
     9.728258554960E-01 1.901562500000E+02-1.345388155103E+00-7.567815229881E-09
     2.321525272275E-11 1.000000000000E+00 2.212000000000E+03 1.000000000000E+00
     2.000000000000E+00 6.300000000000E+01-1.117587089539E-08 2.000000000000E+00
     9.999000000000E+08 4.000000000000E+00
G29 2022 06 01 14 00 00-3.693704493344E-04-6.252776074689E-12 0.000000000000E+00
     2.000000000000E+00 6.825000000000E+01 4.314108271354E-09 2.071610672844E+00
     3.300607204437E-06 1.949501223862E-03-4.321336746216E-07 5.153619266510E+03
     3.096000000000E+05-7.636845111847E-08 1.497057219534E+00 1.676380634308E-08
     9.835870735725E-01 3.960000000000E+02 2.186080550595E+00-8.307846055135E-09
     2.892977646988E-11 1.000000000000E+00 2.212000000000E+03 1.000000000000E+00
     2.000000000000E+00 0.000000000000E+00-9.778887033463E-09 2.000000000000E+00
     9.999000000000E+08 4.000000000000E+00
G30 2022 06 01 14 00 00-4.428536631167E-04-4.547473508865E-12 0.000000000000E+00
     2.000000000000E+00-8.593750000000E+00 5.215217234731E-09-1.142607721110E+00
    -8.028000593185E-07 5.311971181072E-03 8.504837751389E-06 5.153681526184E+03
     3.096000000000E+05 1.285225152969E-07-6.405823438991E-01-4.842877388000E-08
     9.366310122469E-01 2.017812500000E+02-2.754517068487E+00-8.148553705684E-09
    -5.264505002050E-10 1.000000000000E+00 2.212000000000E+03 1.000000000000E+00
     2.000000000000E+00 0.000000000000E+00 3.725290298462E-09 2.000000000000E+00
     9.999000000000E+08 4.000000000000E+00
G31 2022 06 01 14 00 00-1.248735934496E-04-2.160049916711E-12 0.000000000000E+00
     2.000000000000E+00-1.550000000000E+01 4.806628786811E-09-1.221019663784E+00
    -1.067295670509E-06 1.003909937572E-02 9.050592780113E-06 5.153552644730E+03
     3.096000000000E+05-4.842877388000E-08-6.332625314627E-01-2.067536115646E-07
     9.557314061179E-01 2.047500000000E+02 2.654821602033E-01-7.914972547519E-09
    -5.050210361533E-10 1.000000000000E+00 2.212000000000E+03 1.000000000000E+00
     2.000000000000E+00 0.000000000000E+00-1.303851604462E-08 2.000000000000E+00
     9.999000000000E+08 4.000000000000E+00
G32 2022 06 01 14 00 00 1.723691821098E-05-1.591615728103E-12 0.000000000000E+00
     2.000000000000E+00 1.603125000000E+01 4.908418741057E-09 2.541220347236E+00
     8.884817361832E-07 5.022476310842E-03 5.673617124557E-06 5.153675504684E+03
     3.096000000000E+05-1.806765794754E-07-1.719841015006E+00-1.117587089539E-08
     9.569344426520E-01 2.643125000000E+02-2.360730374490E+00-8.142482024202E-09
     4.996636701403E-10 1.000000000000E+00 2.212000000000E+03 1.000000000000E+00
     2.000000000000E+00 0.000000000000E+00 4.656612873077E-10 2.000000000000E+00
     9.999000000000E+08 4.000000000000E+00
